OBJECT_NAME,OBJECT_ID,EPOCH,MEAN_MOTION,ECCENTRICITY,INCLINATION,RA_OF_ASC_NODE,ARG_OF_PERICENTER,MEAN_ANOMALY,EPHEMERIS_TYPE,CLASSIFICATION_TYPE,NORAD_CAT_ID,ELEMENT_SET_NO,REV_AT_EPOCH,BSTAR,MEAN_MOTION_DOT,MEAN_MOTION_DDOT
STARLINK-34949,2025-175B,2026-07-14T14:00:01.999872,15.12586597,.0000887,97.2832,65.6127,99.6731,189.5935,0,U,65175,999,569,.18588695E+0,.3649639E-1,0
STARLINK-34707,2025-175C,2026-07-14T14:00:01.999872,15.10521983,.00019762,97.2835,65.6305,69.7522,205.4657,0,U,65176,999,573,.30538094E-2,.50588E-3,0
STARLINK-34967,2025-175D,2026-07-14T14:00:01.999872,15.11166269,.00017229,97.2839,65.6319,70.6849,206.1484,0,U,65177,999,574,.15008854E+0,.2801014E-1,0
STARLINK-34929,2025-175E,2026-07-14T14:00:01.999872,15.11088357,.00018605,97.2845,65.6631,74.0532,277.9587,0,U,65178,999,563,.15281301E+0,.2851253E-1,0
STARLINK-34932,2025-175F,2026-07-14T14:00:01.999872,15.10524992,.00021754,97.2838,65.6597,79.4006,262.6938,0,U,65179,999,563,.29767901E-2,.49307E-3,0
STARLINK-34862,2025-175G,2026-07-14T14:00:01.999872,15.10516690,.00013655,97.2840,65.6466,66.0654,259.2438,0,U,65180,999,578,.31727288E-2,.52566E-3,0
STARLINK-34942,2025-175H,2026-07-14T13:52:57.623808,15.10719834,.00028778,97.2841,65.6725,72.4974,287.6571,0,U,65181,999,5170,.2927726E-2,.48752E-3,0
STARLINK-34944,2025-175J,2026-07-14T14:00:01.999872,15.10526234,.00015277,97.2848,65.6658,82.7333,270.3366,0,U,65182,999,578,.29483661E-2,.48833E-3,0
STARLINK-34939,2025-175K,2026-07-14T15:17:33.787968,15.10557726,.00025502,97.2831,65.7519,84.1779,275.9742,0,U,65183,999,5171,.13663377E-3,.2194E-4,0
STARLINK-34947,2025-175L,2026-07-14T14:02:17.675520,15.05656916,.00021834,97.2850,65.6659,90.5758,269.5719,0,U,65184,999,5173,.11990029E-3,.1674E-4,0
STARLINK-34945,2025-175M,2026-07-14T13:58:19.624512,15.05651736,.00023189,97.2855,65.6690,88.1783,271.9710,0,U,65185,999,5173,.2434083E-3,.3458E-4,0
STARLINK-34965,2025-175N,2026-07-14T14:00:01.999872,15.10528469,.00019003,97.2844,65.7079,71.9010,19.3251,0,U,65186,999,569,.29177166E-2,.48324E-3,0
STARLINK-34915,2025-175P,2026-07-14T14:00:01.999872,15.10518487,.00019869,97.2847,65.6922,80.8983,332.9237,0,U,65187,999,554,.28793328E-2,.47671E-3,0
STARLINK-34972,2025-175Q,2026-07-14T15:22:01.531200,15.05677038,.00032131,97.2846,65.7460,75.4933,284.6651,0,U,65188,999,5171,.20831692E-3,.2953E-4,0
STARLINK-34866,2025-175R,2026-07-14T15:17:43.552896,15.06206506,.00078528,97.2873,65.7525,132.7215,227.4676,0,U,65189,999,5174,.11134657E-1,.166964E-2,0
STARLINK-34917,2025-175S,2026-07-14T14:00:01.999872,15.05614709,.00020517,97.2854,65.7057,87.5427,354.0321,0,U,65190,999,564,.34693105E-2,.50307E-3,0
STARLINK-34948,2025-175T,2026-07-14T14:00:01.999872,15.10524634,.00013927,97.2841,65.7255,83.2659,57.1924,0,U,65191,999,579,.30883441E-2,.51168E-3,0
STARLINK-34955,2025-175U,2026-07-14T15:06:06.099264,15.05658647,.00030165,97.2846,65.7612,91.4885,268.6688,0,U,65192,999,5171,.1347777E-3,.1889E-4,0
STARLINK-34950,2025-175V,2026-07-14T15:02:08.372256,15.05666460,.00022774,97.2841,65.7648,88.0829,272.0660,0,U,65193,999,5171,.3914868E-3,.5599E-4,0
STARLINK-34926,2025-175W,2026-07-14T14:46:06.093120,15.05823472,.00033766,97.2834,65.7804,103.8464,256.3140,0,U,65194,999,5171,.42838008E-2,.62592E-3,0
STARLINK-34928,2025-175X,2026-07-14T14:48:37.121184,15.07827744,.00022404,97.2841,65.7782,45.5664,314.5748,0,U,65195,999,5174,.42674274E-1,.701278E-2,0
STARLINK-34927,2025-175Y,2026-07-14T14:58:08.499936,15.05657859,.00019681,97.2845,65.7693,94.9252,265.2200,0,U,65196,999,5174,.19426067E-3,.2748E-4,0
STARLINK-34952,2025-175Z,2026-07-12T16:38:50.546112,15.05656354,.00024906,97.2855,63.9528,81.8517,278.2993,0,U,65197,999,5145,.21922546E-3,.3109E-4,0
STARLINK-34981,2025-176A,2026-07-14T13:19:11.436672,15.30205943,.00010706,53.1593,286.3181,97.3757,262.7365,0,U,65198,999,5250,.49716613E-4,.1114E-4,0
STARLINK-34821,2025-176B,2026-07-14T14:11:06.047808,15.34393737,.00009273,53.1582,280.8765,87.9644,272.1465,0,U,65199,999,5251,.18261046E-3,.5797E-4,0
STARLINK-34865,2025-176C,2026-07-14T12:16:13.416960,15.34397253,.00010654,53.1592,281.8053,95.6275,264.4849,0,U,65200,999,5256,.29229541E-3,.9511E-4,0
STARLINK-34843,2025-176D,2026-07-14T12:58:29.589600,15.34416626,.00006329,53.1589,281.2694,96.6507,263.4567,0,U,65201,999,5257,.44350449E-3,.14646E-3,0
STARLINK-34905,2025-176E,2026-07-14T11:27:44.639136,15.34397071,.00007358,53.1587,281.5870,121.0391,239.0684,0,U,65202,999,5256,.8280714E-4,.2423E-4,0
STARLINK-34914,2025-176F,2026-07-14T12:55:29.017920,15.34386475,.00009422,53.1589,281.2585,83.1906,276.9204,0,U,65203,999,5257,.33764981E-3,.11044E-3,0
STARLINK-34787,2025-176G,2026-07-14T12:34:16.494528,15.34385117,.00009062,53.1590,281.1670,72.2177,287.8924,0,U,65204,999,5257,.18741237E-3,.5958E-4,0
