STARLINK-34949          
1 65175U 25175B   26195.58335648  .03649639  00000+0  18589+0 0  9998
2 65175  97.2832  65.6127 0000887  99.6731 189.5935 15.12586597  5691
STARLINK-34707          
1 65176U 25175C   26195.58335648  .00050588  00000+0  30538-2 0  9996
2 65176  97.2835  65.6305 0001976  69.7522 205.4657 15.10521983  5739
STARLINK-34967          
1 65177U 25175D   26195.58335648  .02801014  00000+0  15009+0 0  9990
2 65177  97.2839  65.6319 0001722  70.6849 206.1484 15.11166269  5741
STARLINK-34929          
1 65178U 25175E   26195.58335648  .02851253  00000+0  15281+0 0  9993
2 65178  97.2845  65.6631 0001860  74.0532 277.9587 15.11088357  5635
STARLINK-34932          
1 65179U 25175F   26195.58335648  .00049307  00000+0  29768-2 0  9999
2 65179  97.2838  65.6597 0002175  79.4006 262.6938 15.10524992  5634
STARLINK-34862          
1 65180U 25175G   26195.58335648  .00052566  00000+0  31727-2 0  9990
2 65180  97.2840  65.6466 0001365  66.0654 259.2438 15.10516690  5784
STARLINK-34942          
1 65181U 25175H   26195.57844472  .00048752  00000+0  29277-2 0  9999
2 65181  97.2841  65.6725 0002877  72.4974 287.6571 15.10719834 51700
STARLINK-34944          
1 65182U 25175J   26195.58335648  .00048833  00000+0  29484-2 0  9991
2 65182  97.2848  65.6658 0001527  82.7333 270.3366 15.10526234  5785
STARLINK-34939          
1 65183U 25175K   26195.63719662  .00002194  00000+0  13663-3 0  9993
2 65183  97.2831  65.7519 0002550  84.1779 275.9742 15.10557726 51715
STARLINK-34947          
1 65184U 25175L   26195.58492680  .00001674  00000+0  11990-3 0  9999
2 65184  97.2850  65.6659 0002183  90.5758 269.5719 15.05656916 51731
STARLINK-34945          
1 65185U 25175M   26195.58217158  .00003458  00000+0  24341-3 0  9991
2 65185  97.2855  65.6690 0002318  88.1783 271.9710 15.05651736 51736
STARLINK-34965          
1 65186U 25175N   26195.58335648  .00048324  00000+0  29177-2 0  9999
2 65186  97.2844  65.7079 0001900  71.9010  19.3251 15.10528469  5696
STARLINK-34915          
1 65187U 25175P   26195.58335648  .00047671  00000+0  28793-2 0  9997
2 65187  97.2847  65.6922 0001986  80.8983 332.9237 15.10518487  5549
STARLINK-34972          
1 65188U 25175Q   26195.64029550  .00002953  00000+0  20832-3 0  9998
2 65188  97.2846  65.7460 0003213  75.4933 284.6651 15.05677038 51712
STARLINK-34866          
1 65189U 25175R   26195.63730964  .00166964  00000+0  11135-1 0  9993
2 65189  97.2873  65.7525 0007852 132.7215 227.4676 15.06206506 51742
STARLINK-34917          
1 65190U 25175S   26195.58335648  .00050307  00000+0  34693-2 0  9997
2 65190  97.2854  65.7057 0002051  87.5427 354.0321 15.05614709  5640
STARLINK-34948          
1 65191U 25175T   26195.58335648  .00051168  00000+0  30883-2 0  9991
2 65191  97.2841  65.7255 0001392  83.2659  57.1924 15.10524634  5793
STARLINK-34955          
1 65192U 25175U   26195.62923726  .00001889  00000+0  13478-3 0  9994
2 65192  97.2846  65.7612 0003016  91.4885 268.6688 15.05658647 51718
STARLINK-34950          
1 65193U 25175V   26195.62648579  .00005599  00000+0  39149-3 0  9990
2 65193  97.2841  65.7648 0002277  88.0829 272.0660 15.05666460 51712
STARLINK-34926          
1 65194U 25175W   26195.61534830  .00062592  00000+0  42838-2 0  9998
2 65194  97.2834  65.7804 0003376 103.8464 256.3140 15.05823472 51717
STARLINK-34928          
1 65195U 25175X   26195.61709631  .00701278  00000+0  42674-1 0  9990
2 65195  97.2841  65.7782 0002240  45.5664 314.5748 15.07827744 51746
STARLINK-34927          
1 65196U 25175Y   26195.62370949  .00002748  00000+0  19426-3 0  9995
2 65196  97.2845  65.7693 0001968  94.9252 265.2200 15.05657859 51740
STARLINK-34952          
1 65197U 25175Z   26193.69364058  .00003109  00000+0  21923-3 0  9992
2 65197  97.2855  63.9528 0002490  81.8517 278.2993 15.05656354 51459
STARLINK-34981          
1 65198U 25176A   26195.55499348  .00001114  00000+0  49717-4 0  9998
2 65198  53.1593 286.3181 0001070  97.3757 262.7365 15.30205943 52507
STARLINK-34821          
1 65199U 25176B   26195.59104222  .00005797  00000+0  18261-3 0  9997
2 65199  53.1582 280.8765 0000927  87.9644 272.1465 15.34393737 52513
STARLINK-34865          
1 65200U 25176C   26195.51126640  .00009511  00000+0  29230-3 0  9996
2 65200  53.1592 281.8053 0001065  95.6275 264.4849 15.34397253 52560
STARLINK-34843          
1 65201U 25176D   26195.54062025  .00014646  00000+0  44350-3 0  9991
2 65201  53.1589 281.2694 0000632  96.6507 263.4567 15.34416626 52573
STARLINK-34905          
1 65202U 25176E   26195.47759999  .00002423  00000+0  82807-4 0  9997
2 65202  53.1587 281.5870 0000735 121.0391 239.0684 15.34397071 52569
STARLINK-34914          
1 65203U 25176F   26195.53853030  .00011044  00000+0  33765-3 0  9993
2 65203  53.1589 281.2585 0000942  83.1906 276.9204 15.34386475 52577
STARLINK-34787          
1 65204U 25176G   26195.52380202  .00005958  00000+0  18741-3 0  9993
2 65204  53.1590 281.1670 0000906  72.2177 287.8924 15.34385117 52575
